IRIDIUM 63              
1 25286U 98021B   25079.57491326  .00000932  00000+0  31174-3 0  9995
2 25286  86.3955 119.3200 0002242  96.2545 263.8907 14.36431089411121
IRIDIUM 69              
1 25319U 98026A   25079.51152738  .00001269  00000+0  39047-3 0  9993
2 25319  86.3981 132.9005 0001691  25.6433 334.4850 14.40831831410293
IRIDIUM 71              
1 25320U 98026B   25079.53040846  .00001091  00000+0  33317-3 0  9990
2 25320  86.3966 127.6008 0003555  57.8776 302.2768 14.41037319410820
IRIDIUM 73              
1 25344U 98032C   25079.55359432  .00001961  00000+0  48561-3 0  9992
2 25344  86.4355  84.4671 0001834  81.0298 279.1115 14.51520701417706
IRIDIUM 82              
1 25467U 98051A   25079.26125199  .00044622  00000+0  14904-2 0  9992
2 25467  86.3727 153.2793 0092837 272.5899  86.4723 15.26706045410360
